IRIDIUM 126             
1 42809U 17039G   24033.39109906  .00000137  00000+0  41797-4 0  9994
2 42809  86.4001 355.4610 0002188  79.0133 281.1309 14.34217706345854
IRIDIUM 124             
1 42810U 17039H   24033.24886899  .00000378  00000+0  10635-3 0  9996
2 42810  86.4496 292.2753 0002403  80.0322 280.1150 14.43272665350216
IRIDIUM 128             
1 42811U 17039J   24033.52136731  .00000253  00000+0  83345-4 0  9992
2 42811  86.3963  26.9131 0002079  87.9785 272.1648 14.34220473345908
IRIDIUM 121             
1 42812U 17039K   24033.82873806  .00000080  00000+0  21655-4 0  9991
2 42812  86.4003 355.2996 0002241  84.9042 275.2409 14.34217111345911
IRIDIUM 133             
1 42955U 17061A   24033.48331752  .00000192  00000+0  61445-4 0  9990
2 42955  86.3965  27.0258 0002236  87.2031 272.9420 14.34218793330691
IRIDIUM 100             
1 42956U 17061B   24033.47697566  .00000240  00000+0  78639-4 0  9995
2 42956  86.3963  26.9672 0002106  87.9395 272.2042 14.34219958330691
IRIDIUM 122             
1 42957U 17061C   24033.51502717  .00000241  00000+0  78982-4 0  9996
2 42957  86.3962  26.9492 0002046  86.9845 273.1585 14.34219377330702
IRIDIUM 129             
1 42958U 17061D   24033.47063066  .00000208  00000+0  67203-4 0  9998
2 42958  86.3964  27.0259 0002121  86.3797 273.7642 14.34219003330719
